COMMENT,ORIGINATOR,NORAD_CAT_ID,OBJECT_NAME,OBJECT_TYPE,CLASSIFICATION_TYPE,INTLDES,EPOCH,EPOCH_MICROSECONDS,MEAN_MOTION,ECCENTRICITY,INCLINATION,RA_OF_ASC_NODE,ARG_OF_PERICENTER,MEAN_ANOMALY,EPHEMERIS_TYPE,ELEMENT_SET_NO,REV_AT_EPOCH,BSTAR,MEAN_MOTION_DOT,MEAN_MOTION_DDOT,FILE,TLE_LINE0,TLE_LINE1,TLE_LINE2,OBJECT_ID,OBJECT_NUMBER,SEMIMAJOR_AXIS,PERIOD,APOGEE,PERIGEE
"GENERATED VIA SPACETRACK.ORG API","JSPOC","40073","DUMMY SAT","PAYLOAD","U","14037E","2016-01-08 21:13:13","401696","14.80423102","0.0005053","98.34","93.659","311.8193","48.2578","0","999","8123","2.3258e-05","1.21e-06","0","1977862","0 DUMMY SAT","1 40073U 14037E   16008.88418289  .00000121  00000-0  23258-4 0  9990","2 40073  98.3400  93.6590 0005053 311.8193  48.2578 14.80423102 81234","2014-037E","40073","7006.125","97.269","631.531","624.450"
"GENERATED VIA SPACETRACK.ORG API","JSPOC","25910","GLOBALSTAR M055","PAYLOAD","U","99049D","2016-01-08 21:13:15","39840","12.29322984","0.0007842","52.0006","146.9349","160.5883","9.746","0","999","74429","-5.6036e-05","-1.01e-06","0","1978186","0 GLOBALSTAR M055","1 25910U 99049D   16008.88420185 -.00000101 +00000-0 -56036-4 0  9997","2 25910 052.0006 146.9349 0007842 160.5883 009.7460 12.29322984744294","1999-049D","25910","7930.328","117.137","1558.412","1545.974"
"GENERATED VIA SPACETRACK.ORG API","JSPOC","2174","THOR AGENA B R/B","ROCKET BODY","U","66040B","2016-01-08 21:13:24","470400","13.36042192","0.0056472","100.4719","158.3527","39.9386","125.1205","0","999","42054","2.7673e-05","-3.3e-07","0","1977801","0 THOR AGENA B R/B","1 02174U 66040B   16008.88431100 -.00000033  00000-0  27673-4 0  9996","2 02174 100.4719 158.3527 0056472  39.9386 125.1205 13.36042192420543","1966-040B","2174","7502.195","107.781","1166.427","1081.694"
"GENERATED VIA SPACETRACK.ORG API","JSPOC","22648","COSMOS 2247","PAYLOAD","U","93030C","2016-01-08 21:13:25","419072","12.63178981","0.0008294","82.578","232.1883","311.9545","184.7395","0","999","4474","0.00020037","4.7e-07","0","1978186","0 COSMOS 2247","1 22648U 93030C   16008.88432198 +.00000047 +00000-0 +20037-3 0  9991","2 22648 082.5780 232.1883 0008294 311.9545 184.7395 12.63178981044744","1993-030C","22648","7787.987","113.998","1416.311","1403.393"
"GENERATED VIA SPACETRACK.ORG API","JSPOC","37788","EDUSAT","PAYLOAD","U","11044A","2016-01-08 21:13:29","179200","14.70394472","0.0037473","98.2119","116.9981","313.3373","191.2214","0","999","23568","5.9081e-05","3.08e-06","0","1978186","0 EDUSAT","1 37788U 11044A   16008.88436550 +.00000308 +00000-0 +59081-4 0  9995","2 37788 098.2119 116.9981 0037473 313.3373 191.2214 14.70394472235682","2011-044A","37788","7037.946","97.932","686.184","633.437"
"GENERATED VIA SPACETRACK.ORG API","JSPOC","39762","COSMOS 2497","PAYLOAD","U","14028B","2016-01-08 21:13:29","929152","12.42884235","0.0021854","82.4516","336.9055","94.7114","265.6467","0","999","7399","0","1e-07","0","1978186","0 COSMOS 2497","1 39762U 14028B   16008.88437418 +.00000010 +00000-0 +00000-0 0  9991","2 39762 082.4516 336.9055 0021854 094.7114 265.6467 12.42884235073995","2014-028B","39762","7872.537","115.859","1511.606","1477.197"
"GENERATED VIA SPACETRACK.ORG API","JSPOC","39013","YAOGAN 16C","PAYLOAD","U","12066C","2016-01-08 21:13:32","300832","13.45145482","0.010262","63.3856","24.982","2.1494","357.9953","0","999","15333","8.6304e-05","-3.8e-07","0","1978186","0 YAOGAN 16C","1 39013U 12066C   16008.88440163 -.00000038 +00000-0 +86304-4 0  9997","2 39013 063.3856 024.9820 0102620 002.1494 357.9953 13.45145482153338","2012-066C","39013","7468.309","107.051","1166.814","1013.535"
"GENERATED VIA SPACETRACK.ORG API","JSPOC","7727","COSMOS 724","PAYLOAD","U","75025A","2016-01-08 21:13:35","790528","13.98891818","0.0045777","65.5886","237.3968","77.2342","283.3841","0","999","8241","2.5108e-05","-5.1e-07","0","1978186","0 COSMOS 724","1  7727U 75025A   16008.88444202 -.00000051 +00000-0 +25108-4 0  9996","2  7727 065.5886 237.3968 0045777 077.2342 283.3841 13.98891818082416","1975-025A","7727","7275.772","102.938","930.943","864.330"
"GENERATED VIA SPACETRACK.ORG API","JSPOC","9416","RADUGA 2","PAYLOAD","U","76092A","2016-01-08 21:13:39","556704","1.00278762","0.0029472","11.9294","320.2032","280.3295","249.5541","0","999","9110","0","1e-07","0","1977785","0 RADUGA 2","1 09416U 76092A   16008.88448561  .00000010  00000-0  00000+0 0  9993","2 09416  11.9294 320.2032 0029472 280.3295 249.5541  1.00278762 91107","1976-092A","9416","42162.776","1435.996","35908.903","35660.379"
"GENERATED VIA SPACETRACK.ORG API","JSPOC","2142","OAO 1","PAYLOAD","U","66031A","2016-01-08 21:13:42","941856","14.3383765","0.0007555","35.0457","269.1014","301.6166","58.3784","0","999","60354","3.6475e-05","8.4e-07","0","1978186","0 OAO 1","1  2142U 66031A   16008.88452479 +.00000084 +00000-0 +36475-4 0  9998","2  2142 035.0457 269.1014 0007555 301.6166 058.3784 14.33837650603546","1966-031A","2142","7157.068","100.429","784.340","773.526"
"GENERATED VIA SPACETRACK.ORG API","JSPOC","39404","FIREFLY","PAYLOAD","U","13064AA","2016-01-08 21:13:43","563072","15.48664563","0.0007902","40.5107","307.6128","287.6822","72.3134","0","999","11556","0.00033946","0.00018447","0","1978186","0 FIREFLY","1 39404U 13064AA  16008.88453198 +.00018447 +00000-0 +33946-3 0  9997","2 39404 040.5107 307.6128 0007902 287.6822 072.3134 15.48664563115565","2013-064AA","39404","6798.768","92.983","426.006","415.261"
"GENERATED VIA SPACETRACK.ORG API","JSPOC","25590","COSMOS 2361","PAYLOAD","U","98076A","2016-01-08 21:13:45","189120","13.72904849","0.0030347","82.9352","144.2087","264.0374","259.2608","0","999","85359","2.0462e-05","3.4e-07","0","1978186","0 COSMOS 2361","1 25590U 98076A   16008.88455080 +.00000034 +00000-0 +20462-4 0  9999","2 25590 082.9352 144.2087 0030347 264.0374 259.2608 13.72904849853590","1998-076A","25590","7367.297","104.887","1011.520","966.805"
"GENERATED VIA SPACETRACK.ORG API","JSPOC","15623","COSMOS 1641","PAYLOAD","U","85023G","2016-01-08 21:13:55","130304","12.5450563","0.0044157","74.0545","257.4638","307.8342","177.7633","0","999","41062","1.9118e-05","-1.3e-07","0","1978186","0 COSMOS 1641","1 15623U 85023G   16008.88466586 -.00000013 +00000-0 +19118-4 0  9990","2 15623 074.0545 257.4638 0044157 307.8342 177.7633 12.54505630410625","1985-023G","15623","7823.842","114.786","1480.255","1411.159"
"GENERATED VIA SPACETRACK.ORG API","JSPOC","4298","DELTA 1 R/B","ROCKET BODY","U","70003B","2016-01-08 21:13:59","979936","3.11478474","0.6617655","28.1168","319.5674","284.9486","14.883","0","999","44312","0.00078773","1.268e-05","0","1977764","0 DELTA 1 R/B","1 04298U 70003B   16008.88472199  .00001268  00000-0  78773-3 0  9998","2 04298  28.1168 319.5674 6617655 284.9486  14.8830  3.11478474443120","1970-003B","4298","19805.378","462.311","26533.759","320.727"
"GENERATED VIA SPACETRACK.ORG API","JSPOC","17159","COSMOS 1802","PAYLOAD","U","86093A","2016-01-08 21:14:01","843584","13.72692422","0.0041231","82.9308","119.7979","275.5667","224.4387","0","999","45857","1.0555e-05","2.4e-07","0","1978186","0 COSMOS 1802","1 17159U 86093A   16008.88474356 +.00000024 +00000-0 +10555-4 0  9995","2 17159 082.9308 119.7979 0041231 275.5667 224.4387 13.72692422458574","1986-093A","17159","7368.057","104.903","1020.301","959.543"
"GENERATED VIA SPACETRACK.ORG API","JSPOC","7545","ATLAS CENTAUR R/B","ROCKET BODY","U","74093B","2016-01-08 21:14:02","769792","2.21136566","0.7184838","26.0091","250.3558","333.2441","17.6282","0","999","20251","-0.0012829","-5.9e-07","0","1977766","0 ATLAS CENTAUR R/B","1 07545U 74093B   16008.88475428 -.00000059  00000-0 -12829-2 0  9995","2 07545  26.0091 250.3558 7184838 333.2441  17.6282  2.21136566202516","1974-093B","7545","24886.365","651.181","36388.680","627.779"
"GENERATED VIA SPACETRACK.ORG API","JSPOC","19573","COSMOS 1975","PAYLOAD","U","88093A","2016-01-08 21:14:24","177984","15.03339796","0.0013422","82.5218","133.4393","288.4122","71.5644","0","999","45972","0.00012367","1.709e-05","0","1978186","0 COSMOS 1975","1 19573U 88093A   16008.88500206 +.00001709 +00000-0 +12367-3 0  9996","2 19573 082.5218 133.4393 0013422 288.4122 071.5644 15.03339796459728","1988-093A","19573","6934.743","95.786","565.916","547.300"
"GENERATED VIA SPACETRACK.ORG API","JSPOC","10974","SL-14 R/B","ROCKET BODY","U","78067B","2016-01-08 21:14:25","800576","14.87102899","0.0015962","82.4839","306.6499","285.6866","74.259","0","999","837","2.0264e-05","2.06e-06","0","1978186","0 SL-14 R/B","1 10974U 78067B   16008.88502084 +.00000206 +00000-0 +20264-4 0  9995","2 10974 082.4839 306.6499 0015962 285.6866 074.2590 14.87102899008372","1978-067B","10974","6985.130","96.832","618.144","595.845"
"GENERATED VIA SPACETRACK.ORG API","JSPOC","23940","TOMS EP","PAYLOAD","U","96037A","2016-01-08 21:14:29","148576","14.54774617","0.0029659","98.0224","156.6385","115.0094","37.7702","0","999","3721","7.223e-05","2.68e-06","0","1978186","0 TOMS EP","1 23940U 96037A   16008.88505959 +.00000268 +00000-0 +72230-4 0  9991","2 23940 098.0224 156.6385 0029659 115.0094 037.7702 14.54774617037215","1996-037A","23940","7088.233","98.984","731.121","689.075"
"GENERATED VIA SPACETRACK.ORG API","JSPOC","978","TIROS 9","PAYLOAD","U","65004A","2016-01-08 21:14:35","265696","12.10850627","0.1158839","96.3942","160.3894","355.3609","3.7422","0","999","25019","-6.4373e-05","-6.7e-07","0","1978186","0 TIROS 9","1   978U 65004A   16008.88513039 -.00000067 +00000-0 -64373-4 0  9993","2   978 096.3942 160.3894 1158839 355.3609 003.7422 12.10850627250193","1965-004A","978","8010.779","118.924","2560.965","704.324"
